{
  "type": "FeatureCollection",
  "features": [
    {
      "type": "Feature",
      "properties": {
        "norad_id": 30389,
        "name": "FENGYUN 1C DEB",
        "group": "fengyun-1c-debris",
        "lat": -78.89620864786586,
        "lon": 131.0255577135057,
        "alt_km": 750.709290818023,
        "timestamp": "2025-12-22T22:44:21.251585+00:00",
        "meta_object_name": "FENGYUN 1C DEB",
        "meta_object_id": "1999-025ADC",
        "meta_epoch": "2025-12-22T04:57:44.419104",
        "meta_mean_motion": 14.4419022,
        "meta_eccentricity": 0.00146664,
        "meta_inclination": 98.838,
        "meta_ra_of_asc_node": 77.8117,
        "meta_arg_of_pericenter": 195.7703,
        "meta_mean_anomaly": 192.031,
        "meta_ephemeris_type": 0,
        "meta_classification_type": "U",
        "meta_norad_cat_id": 30389,
        "meta_element_set_no": 999,
        "meta_rev_at_epoch": 97923,
        "meta_bstar": 0.0023809584,
        "meta_mean_motion_dot": 8.142e-05,
        "meta_mean_motion_ddot": 0,
        "tle_line1": "1 30389U 99025ADC 25356.20676411  .00008142  00000+0  23810-2 0  9996",
        "tle_line2": "2 30389  98.8380  77.8117 0014666 195.7703 192.0310 14.44190220979230"
      },
      "geometry": {
        "type": "Point",
        "coordinates": [
          131.0255577135057,
          -78.89620864786586
        ]
      }
    },
    {
      "type": "Feature",
      "properties": {
        "norad_id": 30390,
        "name": "FENGYUN 1C DEB",
        "group": "fengyun-1c-debris",
        "lat": -47.328741798597456,
        "lon": 89.98692118839327,
        "alt_km": 847.7769411789905,
        "timestamp": "2025-12-22T22:44:21.251595+00:00",
        "meta_object_name": "FENGYUN 1C DEB",
        "meta_object_id": "1999-025ADD",
        "meta_epoch": "2025-12-21T05:06:26.580960",
        "meta_mean_motion": 14.29798352,
        "meta_eccentricity": 0.00679284,
        "meta_inclination": 98.8228,
        "meta_ra_of_asc_node": 78.5302,
        "meta_arg_of_pericenter": 140.2641,
        "meta_mean_anomaly": 247.9534,
        "meta_ephemeris_type": 0,
        "meta_classification_type": "U",
        "meta_norad_cat_id": 30390,
        "meta_element_set_no": 999,
        "meta_rev_at_epoch": 97505,
        "meta_bstar": 0.001115487,
        "meta_mean_motion_dot": 2.895e-05,
        "meta_mean_motion_ddot": 0,
        "tle_line1": "1 30390U 99025ADD 25355.21280765  .00002895  00000+0  11155-2 0  9999",
        "tle_line2": "2 30390  98.8228  78.5302 0067928 140.2641 247.9534 14.29798352975059"
      },
      "geometry": {
        "type": "Point",
        "coordinates": [
          89.98692118839327,
          -47.328741798597456
        ]
      }
    },
    {
      "type": "Feature",
      "properties": {
        "norad_id": 30391,
        "name": "FENGYUN 1C DEB",
        "group": "fengyun-1c-debris",
        "lat": 81.19225678993294,
        "lon": -43.102328168939835,
        "alt_km": 872.0052251651523,
        "timestamp": "2025-12-22T22:44:21.251605+00:00",
        "meta_object_name": "FENGYUN 1C DEB",
        "meta_object_id": "1999-025ADE",
        "meta_epoch": "2025-12-22T02:13:28.783200",
        "meta_mean_motion": 14.16276944,
        "meta_eccentricity": 0.00718625,
        "meta_inclination": 98.7802,
        "meta_ra_of_asc_node": 41.9672,
        "meta_arg_of_pericenter": 235.2208,
        "meta_mean_anomaly": 178.937,
        "meta_ephemeris_type": 0,
        "meta_classification_type": "U",
        "meta_norad_cat_id": 30391,
        "meta_element_set_no": 999,
        "meta_rev_at_epoch": 97011,
        "meta_bstar": 0.0010046934,
        "meta_mean_motion_dot": 1.998e-05,
        "meta_mean_motion_ddot": 0,
        "tle_line1": "1 30391U 99025ADE 25356.09269425  .00001998  00000+0  10047-2 0  9999",
        "tle_line2": "2 30391  98.7802  41.9672 0071862 235.2208 178.9370 14.16276944970114"
      },
      "geometry": {
        "type": "Point",
        "coordinates": [
          -43.102328168939835,
          81.19225678993294
        ]
      }
    },
    {
      "type": "Feature",
      "properties": {
        "norad_id": 30392,
        "name": "FENGYUN 1C DEB",
        "group": "fengyun-1c-debris",
        "lat": 60.42329614825035,
        "lon": -148.9329098811181,
        "alt_km": 975.1453982222365,
        "timestamp": "2025-12-22T22:44:21.251615+00:00",
        "meta_object_name": "FENGYUN 1C DEB",
        "meta_object_id": "1999-025ADF",
        "meta_epoch": "2025-12-21T00:15:04.245984",
        "meta_mean_motion": 14.07470683,
        "meta_eccentricity": 0.01806247,
        "meta_inclination": 98.785,
        "meta_ra_of_asc_node": 13.3715,
        "meta_arg_of_pericenter": 333.5382,
        "meta_mean_anomaly": 54.5836,
        "meta_ephemeris_type": 0,
        "meta_classification_type": "U",
        "meta_norad_cat_id": 30392,
        "meta_element_set_no": 999,
        "meta_rev_at_epoch": 96787,
        "meta_bstar": 0.00044352765,
        "meta_mean_motion_dot": 8.23e-06,
        "meta_mean_motion_ddot": 0,
        "tle_line1": "1 30392U 99025ADF 25355.01046581  .00000823  00000+0  44353-3 0  9991",
        "tle_line2": "2 30392  98.7850  13.3715 0180624 333.5382  54.5836 14.07470683967872"
      },
      "geometry": {
        "type": "Point",
        "coordinates": [
          -148.9329098811181,
          60.42329614825035
        ]
      }
    },
    {
      "type": "Feature",
      "properties": {
        "norad_id": 30393,
        "name": "FENGYUN 1C DEB",
        "group": "fengyun-1c-debris",
        "lat": -76.35772689596564,
        "lon": -166.95645889455886,
        "alt_km": 859.5697470675595,
        "timestamp": "2025-12-22T22:44:21.251625+00:00",
        "meta_object_name": "FENGYUN 1C DEB",
        "meta_object_id": "1999-025ADG",
        "meta_epoch": "2025-12-22T15:22:25.405248",
        "meta_mean_motion": 13.98991737,
        "meta_eccentricity": 0.00699352,
        "meta_inclination": 99.1641,
        "meta_ra_of_asc_node": 54.4262,
        "meta_arg_of_pericenter": 232.6689,
        "meta_mean_anomaly": 281.9878,
        "meta_ephemeris_type": 0,
        "meta_classification_type": "U",
        "meta_norad_cat_id": 30393,
        "meta_element_set_no": 999,
        "meta_rev_at_epoch": 96468,
        "meta_bstar": 0.00014670343,
        "meta_mean_motion_dot": 1.71e-06,
        "meta_mean_motion_ddot": 0,
        "tle_line1": "1 30393U 99025ADG 25356.64057182  .00000171  00000+0  14670-3 0  9996",
        "tle_line2": "2 30393  99.1641  54.4262 0069935 232.6689 281.9878 13.98991737964684"
      },
      "geometry": {
        "type": "Point",
        "coordinates": [
          -166.95645889455886,
          -76.35772689596564
        ]
      }
    },
    {
      "type": "Feature",
      "properties": {
        "norad_id": 30394,
        "name": "FENGYUN 1C DEB",
        "group": "fengyun-1c-debris",
        "lat": 65.5470961030004,
        "lon": -133.10276887322144,
        "alt_km": 850.596943094045,
        "timestamp": "2025-12-22T22:44:21.251636+00:00",
        "meta_object_name": "FENGYUN 1C DEB",
        "meta_object_id": "1999-025ADH",
        "meta_epoch": "2025-12-21T01:44:23.561088",
        "meta_mean_motion": 13.95791326,
        "meta_eccentricity": 0.00897575,
        "meta_inclination": 99.4338,
        "meta_ra_of_asc_node": 23.5327,
        "meta_arg_of_pericenter": 79.0978,
        "meta_mean_anomaly": 336.4997,
        "meta_ephemeris_type": 0,
        "meta_classification_type": "U",
        "meta_norad_cat_id": 30394,
        "meta_element_set_no": 999,
        "meta_rev_at_epoch": 96220,
        "meta_bstar": 0.00011847102,
        "meta_mean_motion_dot": 1.21e-06,
        "meta_mean_motion_ddot": 0,
        "tle_line1": "1 30394U 99025ADH 25355.07249492  .00000121  00000+0  11847-3 0  9998",
        "tle_line2": "2 30394  99.4338  23.5327 0089757  79.0978 336.4997 13.95791326962201"
      },
      "geometry": {
        "type": "Point",
        "coordinates": [
          -133.10276887322144,
          65.5470961030004
        ]
      }
    },
    {
      "type": "Feature",
      "properties": {
        "norad_id": 30395,
        "name": "FENGYUN 1C DEB",
        "group": "fengyun-1c-debris",
        "lat": -64.7998075692648,
        "lon": 31.733192523779177,
        "alt_km": 860.4716584408143,
        "timestamp": "2025-12-22T22:44:21.251646+00:00",
        "meta_object_name": "FENGYUN 1C DEB",
        "meta_object_id": "1999-025ADJ",
        "meta_epoch": "2025-12-22T00:57:20.199168",
        "meta_mean_motion": 13.96703573,
        "meta_eccentricity": 0.01599169,
        "meta_inclination": 98.9299,
        "meta_ra_of_asc_node": 11.3325,
        "meta_arg_of_pericenter": 0.5588,
        "meta_mean_anomaly": 53.5042,
        "meta_ephemeris_type": 0,
        "meta_classification_type": "U",
        "meta_norad_cat_id": 30395,
        "meta_element_set_no": 999,
        "meta_rev_at_epoch": 96153,
        "meta_bstar": 0.00041780031,
        "meta_mean_motion_dot": 6.02e-06,
        "meta_mean_motion_ddot": 0,
        "tle_line1": "1 30395U 99025ADJ 25356.03981712  .00000602  00000+0  41780-3 0  9997",
        "tle_line2": "2 30395  98.9299  11.3325 0159916   0.5588  53.5042 13.96703573961537"
      },
      "geometry": {
        "type": "Point",
        "coordinates": [
          31.733192523779177,
          -64.7998075692648
        ]
      }
    }
  ]
}